[{"OBJECT_NAME":"ONEWEB-0595","OBJECT_ID":"2022-166V","EPOCH":"2026-03-09T22:37:21.327744","MEAN_MOTION":13.2182539,"ECCENTRICITY":0.00018125,"INCLINATION":87.9171,"RA_OF_ASC_NODE":263.7571,"ARG_OF_PERICENTER":90.6849,"MEAN_ANOMALY":269.4492,"EPHEMERIS_TYPE":0,"CLASSIFICATION_TYPE":"U","NORAD_CAT_ID":54661,"ELEMENT_SET_NO":999,"REV_AT_EPOCH":15842,"BSTAR":-0.00050140173,"MEAN_MOTION_DOT":-1.94e-6,"MEAN_MOTION_DDOT":0},{"OBJECT_NAME":"CZ-4C DEB","OBJECT_ID":"2010-059E","EPOCH":"2026-03-09T08:48:23.177952","MEAN_MOTION":13.71352703,"ECCENTRICITY":0.02690884,"INCLINATION":98.6543,"RA_OF_ASC_NODE":275.3464,"ARG_OF_PERICENTER":99.3571,"MEAN_ANOMALY":25.4803,"EPHEMERIS_TYPE":0,"CLASSIFICATION_TYPE":"U","NORAD_CAT_ID":38295,"ELEMENT_SET_NO":999,"REV_AT_EPOCH":65479,"BSTAR":0.00037577364,"MEAN_MOTION_DOT":4.01e-6,"MEAN_MOTION_DDOT":0}]
